# tle

A tle parser and generator for rust.

TLE format is really lame and super annoying. i'm just doing this to practice rust.

Wikipedia's quick article on the [TLE format](https://en.wikipedia.org/wiki/Two-line_element_set#Format)

For more in-depth info about the fields, visit to [celestrak's guide](https://celestrak.com/columns/v04n03/)



Example TLE for the International Space Station

```
ISS (ZARYA)
1 25544U 98067A   08264.51782528 -.00002182  00000-0 -11606-4 0  2927
2 25544  51.6416 247.4627 0006703 130.5360 325.0288 15.72125391563537
```

Example usage of this library

```
```
